NORAD_CAT_ID,OBJECT_NAME,OBJECT_TYPE,EPOCH,MEAN_MOTION,ECCENTRICITY,INCLINATION,RA_OF_ASC_NODE,ARG_OF_PERICENTER,MEAN_ANOMALY,BSTAR,MEAN_MOTION_DOT,MEAN_MOTION_DDOT,TLE_LINE0,TLE_LINE1,TLE_LINE2,SEMIMAJOR_AXIS,PERIOD,APOGEE,PERIGEE,DECAYED
50837.0,STARLINK-3318,PAYLOAD,2023-12-30 14:50:24,15.08838871,0.0001225,53.2179,160.7819,93.8992,266.214,-5.9614e-07,-2.97e-06,0.0,0 STARLINK-3318,1 50837U 22001AL  23364.61834301 -.00000297  00000-0 -59614-6 0  9993,2 50837  53.2179 160.7819 0001225  93.8992 266.2140 15.08838871109622,6917.884,95.438,540.596,538.901,0.0
50837.0,STARLINK-3318,PAYLOAD,2023-12-30 18:01:10,15.08840238,0.0001396,53.2173,160.1865,94.0556,266.0596,2.9205e-05,1.77e-06,0.0,0 STARLINK-3318,1 50837U 22001AL  23364.75082131  .00000177  00000-0  29205-4 0  9990,2 50837  53.2173 160.1865 0001396  94.0556 266.0596 15.08840238110848,6917.88,95.438,540.71,538.779,0.0
50837.0,STARLINK-3318,PAYLOAD,2023-12-31 19:27:21,15.08841289,0.0001305,53.2171,155.4286,83.5243,276.5897,9.1261e-05,1.165e-05,0.0,0 STARLINK-3318,1 50837U 22001AL  23365.81066039  .00001165  00000-0  91261-4 0  9996,2 50837  53.2171 155.4286 0001305  83.5243 276.5897 15.08841289111002,6917.876,95.437,540.644,538.839,0.0
50837.0,STARLINK-3318,PAYLOAD,2024-01-01 14:31:59,15.08839031,0.0001334,53.2169,151.8597,84.2005,275.9139,2.9607e-05,1.83e-06,0.0,0 STARLINK-3318,1 50837U 22001AL  24001.60554406  .00000183  00000-0  29607-4 0  9995,2 50837  53.2169 151.8597 0001334  84.2005 275.9139 15.08839031109922,6917.883,95.438,540.671,538.826,0.0
50837.0,STARLINK-3318,PAYLOAD,2024-01-01 19:18:08,15.08843886,0.0001364,53.217,150.9675,83.1655,276.9492,6.5865e-05,7.61e-06,0.0,0 STARLINK-3318,1 50837U 22001AL  24001.80425983  .00000761  00000-0  65865-4 0  9992,2 50837  53.2170 150.9675 0001364  83.1655 276.9492 15.08843886109952,6917.869,95.437,540.677,538.79,0.0
50837.0,STARLINK-3318,PAYLOAD,2024-01-02 09:36:36,15.08840639,0.0001329,53.2173,148.2868,88.6378,271.4766,2.1816e-05,5.9e-07,0.0,0 STARLINK-3318,1 50837U 22001AL  24002.40042274  .00000059  00000-0  21816-4 0  9995,2 50837  53.2173 148.2868 0001329  88.6378 271.4766 15.08840639111244,6917.878,95.438,540.663,538.824,0.0
50837.0,STARLINK-3318,PAYLOAD,2024-01-02 14:22:45,15.08844669,0.0001359,53.2173,147.3985,91.6519,268.4629,5.0033e-05,5.09e-06,0.0,0 STARLINK-3318,1 50837U 22001AL  24002.59913860  .00000509  00000-0  50033-4 0  9996,2 50837  53.2173 147.3985 0001359  91.6519 268.4629 15.08844669110079,6917.866,95.437,540.671,538.791,0.0
50837.0,STARLINK-3318,PAYLOAD,2024-01-02 15:58:08,15.08845577,0.0001407,53.2175,147.1011,87.3805,272.7349,5.8252e-05,6.39e-06,0.0,0 STARLINK-3318,1 50837U 22001AL  24002.66537789  .00000639  00000-0  58252-4 0  9991,2 50837  53.2175 147.1011 0001407  87.3805 272.7349 15.08845577110080,6917.863,95.437,540.702,538.755,0.0
50837.0,STARLINK-3318,PAYLOAD,2024-01-03 09:27:23,15.08839608,0.0001615,53.2189,143.8341,82.2338,277.8838,-1.999e-05,-6.06e-06,0.0,0 STARLINK-3318,1 50837U 22001AL  24003.39402530 -.00000606  00000-0 -19990-4 0  9999,2 50837  53.2189 143.8341 0001615  82.2338 277.8838 15.08839608111392,6917.882,95.438,540.864,538.629,0.0
50837.0,STARLINK-3318,PAYLOAD,2024-01-03 14:13:33,15.08835711,0.0001401,53.218,142.9405,97.8279,262.2872,-4.6469e-05,-1.027e-05,0.0,0 STARLINK-3318,1 50837U 22001AL  24003.59274720 -.00001027  00000-0 -46469-4 0  9998,2 50837  53.2180 142.9405 0001401  97.8279 262.2872 15.08835711110221,6917.893,95.438,540.728,538.789,0.0
50837.0,STARLINK-3318,PAYLOAD,2024-01-03 15:48:56,15.08836354,0.0001399,53.2177,142.643,94.7831,265.332,-3.8681e-05,-9.03e-06,0.0,0 STARLINK-3318,1 50837U 22001AL  24003.65898670 -.00000903  00000-0 -38681-4 0  9990,2 50837  53.2177 142.6430 0001399  94.7831 265.3320 15.08836354110235,6917.892,95.438,540.724,538.789,0.0
50837.0,STARLINK-3318,PAYLOAD,2024-01-04 12:28:59,15.08819345,0.0001252,53.2176,138.778,92.3166,267.7969,-0.00012697,-2.307e-05,0.0,0 STARLINK-3318,1 50837U 22001AL  24004.52012821 -.00002307  00000-0 -12697-3 0  9991,2 50837  53.2176 138.7780 0001252  92.3166 267.7969 15.08819345111564,6917.944,95.439,540.675,538.942,0.0
50837.0,STARLINK-3318,PAYLOAD,2024-01-04 14:04:22,15.08819171,0.0001231,53.2164,138.4788,85.1917,274.9216,-0.00014087,-2.528e-05,0.0,0 STARLINK-3318,1 50837U 22001AL  24004.58636957 -.00002528  00000-0 -14087-3 0  9999,2 50837  53.2164 138.4788 0001231  85.1917 274.9216 15.08819171110377,6917.944,95.439,540.661,538.957,0.0
50837.0,STARLINK-3318,PAYLOAD,2024-01-04 18:50:31,15.0882102,0.0001305,53.2163,137.5858,97.4683,262.6458,-0.00011822,-2.168e-05,0.0,0 STARLINK-3318,1 50837U 22001AL  24004.78508960 -.00002168  00000-0 -11822-3 0  9997,2 50837  53.2163 137.5858 0001305  97.4683 262.6458 15.08821020110404,6917.938,95.439,540.706,538.901,0.0
50837.0,STARLINK-3318,PAYLOAD,2024-01-05 12:19:45,15.08833013,0.0001207,53.2173,134.3168,64.0901,296.0216,9.0715e-05,1.156e-05,0.0,0 STARLINK-3318,1 50837U 22001AL  24005.51372208  .00001156  00000-0  90715-4 0  9996,2 50837  53.2173 134.3168 0001207  64.0901 296.0216 15.08833013111711,6917.902,95.438,540.602,538.932,0.0
50837.0,STARLINK-3318,PAYLOAD,2024-01-05 13:55:08,15.0883447,0.0001321,53.2172,134.0175,78.0756,282.0385,8.8606e-05,1.122e-05,0.0,0 STARLINK-3318,1 50837U 22001AL  24005.57996032  .00001122  00000-0  88606-4 0  9998,2 50837  53.2172 134.0175 0001321  78.0756 282.0385 15.08834470110523,6917.897,95.438,540.676,538.848,0.0
50837.0,STARLINK-3318,PAYLOAD,2024-01-05 15:30:31,15.08837623,0.0001173,53.2168,133.7211,81.6092,278.5033,0.0001303,1.786e-05,0.0,0 STARLINK-3318,1 50837U 22001AL  24005.64619820  .00001786  00000-0  13030-3 0  9997,2 50837  53.2168 133.7211 0001173  81.6092 278.5033 15.08837623110537,6917.888,95.438,540.564,538.941,0.0
50837.0,STARLINK-3318,PAYLOAD,2024-01-06 12:10:31,15.08846749,0.0001092,53.2168,129.8556,83.9022,276.2095,0.00025443,3.764e-05,0.0,0 STARLINK-3318,1 50837U 22001AL  24006.50731129  .00003764  00000-0  25443-3 0  9999,2 50837  53.2168 129.8556 0001092  83.9022 276.2095 15.08846749111862,6917.86,95.437,540.48,538.969,0.0
50837.0,STARLINK-3318,PAYLOAD,2024-01-06 18:32:03,15.0885485,0.0001144,53.2171,128.6655,82.8971,277.2151,0.00031955,4.803e-05,0.0,0 STARLINK-3318,1 50837U 22001AL  24006.77226464  .00004803  00000-0  31955-3 0  9999,2 50837  53.2171 128.6655 0001144  82.8971 277.2151 15.08854850110700,6917.835,95.437,540.491,538.909,0.0
50837.0,STARLINK-3318,PAYLOAD,2024-01-07 12:01:18,15.08849893,0.0001991,53.219,125.3898,136.2781,223.8369,2.594e-05,1.25e-06,0.0,0 STARLINK-3318,1 50837U 22001AL  24007.50091159  .00000125  00000-0  25940-4 0  9993,2 50837  53.2190 125.3898 0001991 136.2781 223.8369 15.08849893112012,6917.85,95.437,541.092,538.338,0.0
50837.0,STARLINK-3318,PAYLOAD,2024-01-07 13:36:41,15.0885268,0.0002186,53.2191,125.091,145.4779,214.6355,2.5215e-05,1.13e-06,0.0,0 STARLINK-3318,1 50837U 22001AL  24007.56715049  .00000113  00000-0  25215-4 0  9992,2 50837  53.2191 125.0910 0002186 145.4779 214.6355 15.08852680110829,6917.842,95.437,541.219,538.194,0.0
50837.0,STARLINK-3318,PAYLOAD,2024-01-07 16:47:28,15.08851792,0.0001178,53.2182,124.4998,90.8906,269.2221,5.9145e-05,6.54e-06,0.0,0 STARLINK-3318,1 50837U 22001AL  24007.69963150  .00000654  00000-0  59145-4 0  9993,2 50837  53.2182 124.4998 0001178  90.8906 269.2221 15.08851792110846,6917.844,95.437,540.524,538.894,0.0
50837.0,STARLINK-3318,PAYLOAD,2024-01-08 13:27:28,15.08858244,0.0001192,53.2171,120.6355,94.8657,265.2471,-4.5036e-06,-3.6e-06,0.0,0 STARLINK-3318,1 50837U 22001AL  24008.56074217 -.00000360  00000-0 -45036-5 0  9998,2 50837  53.2171 120.6355 0001192  94.8657 265.2471 15.08858244110978,6917.825,95.436,540.514,538.865,0.0
50837.0,STARLINK-3318,PAYLOAD,2024-01-08 15:02:51,15.08860068,0.0001276,53.2175,120.3387,74.5117,285.6016,1.1953e-05,-9.8e-07,0.0,0 STARLINK-3318,1 50837U 22001AL  24008.62698114 -.00000098  00000-0  11953-4 0  9990,2 50837  53.2175 120.3387 0001276  74.5117 285.6016 15.08860068112186,6917.819,95.436,540.567,538.801,0.0
50837.0,STARLINK-3318,PAYLOAD,2024-01-09 13:18:15,15.08843531,0.000123,53.2169,116.178,78.4816,281.6315,1.6531e-05,-2.5e-07,0.0,0 STARLINK-3318,1 50837U 22001AL  24009.55435024 -.00000025  00000-0  16531-4 0  9999,2 50837  53.2169 116.1780 0001230  78.4816 281.6315 15.08843531112328,6917.87,95.437,540.585,538.884,0.0
50837.0,STARLINK-3318,PAYLOAD,2024-01-09 16:29:01,15.08847447,0.0001569,53.2196,115.5761,71.389,288.7272,6.5699e-05,7.58e-06,0.0,0 STARLINK-3318,1 50837U 22001AL  24009.68682623  .00000758  00000-0  65699-4 0  9993,2 50837  53.2196 115.5761 0001569  71.3890 288.7272 15.08847447111148,6917.858,95.437,540.808,538.637,0.0
50837.0,STARLINK-3318,PAYLOAD,2024-01-10 11:33:39,15.08844054,0.0001401,53.2189,112.0042,106.6247,253.4899,-6.245e-05,-1.282e-05,0.0,0 STARLINK-3318,1 50837U 22001AL  24010.48170974 -.00001282  00000-0 -62450-4 0  9991,2 50837  53.2189 112.0042 0001401 106.6247 253.4899 15.08844054111265,6917.868,95.437,540.702,538.764,0.0
50837.0,STARLINK-3318,PAYLOAD,2024-01-10 16:19:48,15.08845633,0.0001596,53.2196,111.1141,107.6568,252.4599,-4.4303e-05,-9.93e-06,0.0,0 STARLINK-3318,1 50837U 22001AL  24010.68042777 -.00000993  00000-0 -44303-4 0  9997,2 50837  53.2196 111.1141 0001596 107.6568 252.4599 15.08845633112491,6917.863,95.437,540.832,538.624,0.0
50837.0,STARLINK-3318,PAYLOAD,2024-01-11 12:59:49,15.08850856,0.0001485,53.2179,107.2532,102.7229,257.3929,9.4595e-05,1.218e-05,0.0,0 STARLINK-3318,1 50837U 22001AL  24011.54154137  .00001218  00000-0  94595-4 0  9994,2 50837  53.2179 107.2532 0001485 102.7229 257.3929 15.08850856111425,6917.847,95.437,540.74,538.685,0.0
50837.0,STARLINK-3318,PAYLOAD,2024-01-12 11:15:13,15.08841779,0.000154,53.2173,103.091,104.9218,255.1945,3.7658e-05,3.11e-06,0.0,0 STARLINK-3318,1 50837U 22001AL  24012.46891151  .00000311  00000-0  37658-4 0  9990,2 50837  53.2173 103.0910 0001540 104.9218 255.1945 15.08841779112763,6917.875,95.437,540.805,538.675,0.0
